JILIN-1 07              
1 43159U 18008E   26198.92788765  .00004860  00000+0  14450-3 0  9991
2 43159  97.1765 218.0455 0006492 316.1078  43.9649 15.35191012469711
JILIN-1 08              
1 43160U 18008F   26198.94998737  .00003193  00000+0  99286-4 0  9996
2 43160  97.1802 217.3483 0004981 341.4275  18.6786 15.34028228469661
S-NET D                 
1 43186U 18014G   26198.60997463  .00002521  00000+0  13124-3 0  9999
2 43186  97.5327 103.2117 0006215 274.2830  85.7692 15.16929875463375
S-NET B                 
1 43187U 18014H   26198.62202689  .00002508  00000+0  13071-3 0  9997
2 43187  97.5333 103.2112 0006833 268.3508  91.6942 15.16899456463375
S-NET A                 
1 43188U 18014J   26198.60868445  .00002499  00000+0  13012-3 0  9998
2 43188  97.5341 103.4127 0006726 269.2169  90.8294 15.16938167463371
S-NET C                 
1 43189U 18014K   26198.62606724  .00002431  00000+0  12681-3 0  9998
2 43189  97.5360 103.5091 0008107 260.1574  99.8744 15.16890487461929
PAZ                     
1 43215U 18020A   26198.99924003  .00000922  00000+0  47101-4 0  9997
2 43215  97.4457 205.9475 0001697  88.1504 271.9925 15.19148819465685
GOES 17                 
1 43226U 18022A   26198.82046775 -.00000192  00000+0  00000+0 0  9996
2 43226   1.0139  85.2201 0000596  70.6215 345.6576  1.00270854 30738
LKW-4                   
1 43236U 18025A   26198.92757501  .00028169  00000+0  29150-3 0  9991
2 43236  97.6358  12.2715 0003574 176.0074 184.1214 15.64692125464837
ZHUHAI-1 OVS-02         
1 43440U 18040B   26199.00099666  .00003830  00000+0  15426-3 0  9995
2 43440  97.0383 214.4095 0005295 128.6881 231.4833 15.25398324457414
ZHUHAI-1 OHS-02         
1 43441U 18040C   26198.96845646  .00004171  00000+0  16316-3 0  9995
2 43441  97.0360 221.3490 0011353 117.0187 243.2213 15.26291300118974
GAOFEN-6                
1 43484U 18048A   26198.97519973 -.00000031  00000+0  31496-5 0  9992
2 43484  98.0954 261.6835 0012102  73.6160 286.6379 14.76384403437937
LUOJIA-1 01             
1 43485U 18048B   26198.98638163  .00001375  00000+0  15799-3 0  9994
2 43485  97.8098 276.6798 0009634  29.4995 330.6763 14.87388753438795
PAKTES 1A               
1 43529U 18056A   26198.90765427  .00001401  00000+0  11997-3 0  9994
2 43529  98.1295 356.7051 0019741  11.8136 348.3545 14.99212382436521
PRSS-1                  
1 43530U 18056B   26198.91017345 -.00000036  00000+0  18994-5 0  9996
2 43530  97.7806 265.9276 0001285  86.4970 273.6390 14.82030054432984
HAIYANG-1C              
1 43609U 18068A   26198.94210663  .00000011  00000+0  19431-4 0  9995
2 43609  98.5180 270.8036 0011041  10.4008 349.7403 14.34186949411499
SSTL S1-4               
1 43618U 18071A   26198.91912686  .00000756  00000+0  71933-4 0  9991
2 43618  97.4979  69.2477 0002500  94.7326 265.4181 14.96207243427538
HAIYANG-2B              
1 43655U 18081A   26198.99195932 -.00000087  00000+0 -42070-4 0  9997
2 43655  99.3286 207.2838 0001014 144.9118 215.2101 13.79306894389176
CFOSAT                  
1 43662U 18083A   26196.92928442  .00001708  00000+0  90896-4 0  9996
2 43662  97.3616 200.6163 0001830  75.6723 284.4713 15.16538301426795
TEN-KOH                 
1 43677U 18084G   26198.48187733  .00001478  00000+0  11457-3 0  9995
2 43677  98.0765  32.1201 0009768  23.8261 336.3413 15.03053918420717
DIWATA-2B               
1 43678U 18084H   26198.97828904  .00000985  00000+0  83138-4 0  9990
2 43678  98.1211  36.5350 0012689  75.8524 284.4107 15.00569266420834
STARS-AO                
1 43679U 18084J   26198.08157632  .00003267  00000+0  16749-3 0  9995
2 43679  98.0474  53.8983 0003562  77.9645 282.1986 15.17356770422009
AUTCUBE 2               
1 43681U 18084K   26198.04654678  .00001954  00000+0  12370-3 0  9993
2 43681  98.0688  45.8049 0007629 307.5976  52.4559 15.10273255421439
METOP-C                 
1 43689U 18087A   26198.89766942  .00000029  00000+0  33144-4 0  9990
2 43689  98.6628 257.9374 0002128  90.1177 270.0244 14.21503253399192
ES'HAIL 2               
1 43700U 18090A   26198.83933672  .00000135  00000+0  00000+0 0  9996
2 43700   0.0143  73.7605 0002330  84.7371 105.0912  1.00272480 27988
MOHAMMED VI-B           
1 43717U 18095A   26198.93178124 -.00000024  00000+0  38154-5 0  9998
2 43717  97.9547 270.8311 0001783  91.2854 268.8561 14.77082380412727
HYSIS                   
1 43719U 18096A   26198.93382432  .00000186  00000+0  32479-4 0  9991
2 43719  97.9826 265.4384 0001770  83.5146 276.6267 14.78671714411964
COSMOS 2530 (RODNIK-S *)
1 43751U 18097A   26198.96570649  .00000127  00000+0  84630-3 0  9990
2 43751  82.5117 203.1786 0018866 332.7727  27.2362 12.42882544346110
COSMOS 2531 (RODNIK-S *)
1 43752U 18097B   26198.98721968  .00000131  00000+0  87705-3 0  9996
2 43752  82.5162 204.2342 0016473 352.9089   7.1755 12.42913892346134
