OBJECT_NAME,OBJECT_ID,EPOCH,MEAN_MOTION,ECCENTRICITY,INCLINATION,RA_OF_ASC_NODE,ARG_OF_PERICENTER,MEAN_ANOMALY,EPHEMERIS_TYPE,CLASSIFICATION_TYPE,NORAD_CAT_ID,ELEMENT_SET_NO,REV_AT_EPOCH,BSTAR,MEAN_MOTION_DOT,MEAN_MOTION_DDOT
JILIN-1 07,2018-008E,2026-07-17T22:16:09.492960,15.35191012,.00064925,97.1765,218.0455,316.1078,43.9649,0,U,43159,999,46971,.14449888E-3,.486E-4,0
JILIN-1 08,2018-008F,2026-07-17T22:47:58.908768,15.34028228,.00049815,97.1802,217.3483,341.4275,18.6786,0,U,43160,999,46966,.99286231E-4,.3193E-4,0
S-NET D,2018-014G,2026-07-17T14:38:21.808032,15.16929875,.00062151,97.5327,103.2117,274.2830,85.7692,0,U,43186,999,46337,.13124068E-3,.2521E-4,0
S-NET B,2018-014H,2026-07-17T14:55:43.123296,15.16899456,.00068334,97.5333,103.2112,268.3508,91.6942,0,U,43187,999,46337,.13070704E-3,.2508E-4,0
S-NET A,2018-014J,2026-07-17T14:36:30.336480,15.16938167,.00067263,97.5341,103.4127,269.2169,90.8294,0,U,43188,999,46337,.13011898E-3,.2499E-4,0
S-NET C,2018-014K,2026-07-17T15:01:32.209536,15.16890487,.00081075,97.5360,103.5091,260.1574,99.8744,0,U,43189,999,46192,.12680585E-3,.2431E-4,0
PAZ,2018-020A,2026-07-17T23:58:54.338592,15.19148819,.0001697,97.4457,205.9475,88.1504,271.9925,0,U,43215,999,46568,.47100564E-4,.922E-5,0
GOES 17,2018-022A,2026-07-17T19:41:28.413600,1.00270854,.00005965,1.0139,85.2201,70.6215,345.6576,0,U,43226,999,3073,0,-.192E-5,0
LKW-4,2018-025A,2026-07-17T22:15:42.480864,15.64692125,.0003574,97.6358,12.2715,176.0074,184.1214,0,U,43236,999,46483,.29149578E-3,.28169E-3,0
ZHUHAI-1 OVS-02,2018-040B,2026-07-18T00:01:26.111424,15.25398324,.00052957,97.0383,214.4095,128.6881,231.4833,0,U,43440,999,45741,.15426316E-3,.383E-4,0
ZHUHAI-1 OHS-02,2018-040C,2026-07-17T23:14:34.638144,15.26291300,.00113534,97.0360,221.3490,117.0187,243.2213,0,U,43441,999,11897,.16315586E-3,.4171E-4,0
GAOFEN-6,2018-048A,2026-07-17T23:24:17.256672,14.76384403,.00121023,98.0954,261.6835,73.6160,286.6379,0,U,43484,999,43793,.3149632E-5,-.31E-6,0
LUOJIA-1 01,2018-048B,2026-07-17T23:40:23.372832,14.87388753,.0009634,97.8098,276.6798,29.4995,330.6763,0,U,43485,999,43879,.15798659E-3,.1375E-4,0
PAKTES 1A,2018-056A,2026-07-17T21:47:01.328928,14.99212382,.00197416,98.1295,356.7051,11.8136,348.3545,0,U,43529,999,43652,.11996969E-3,.1401E-4,0
PRSS-1,2018-056B,2026-07-17T21:50:38.986080,14.82030054,.0001285,97.7806,265.9276,86.4970,273.6390,0,U,43530,999,43298,.1899423E-5,-.36E-6,0
HAIYANG-1C,2018-068A,2026-07-17T22:36:38.012832,14.34186949,.00110417,98.5180,270.8036,10.4008,349.7403,0,U,43609,999,41149,.19430507E-4,.11E-6,0
SSTL S1-4,2018-071A,2026-07-17T22:03:32.560704,14.96207243,.00025008,97.4979,69.2477,94.7326,265.4181,0,U,43618,999,42753,.71933035E-4,.756E-5,0
HAIYANG-2B,2018-081A,2026-07-17T23:48:25.285248,13.79306894,.00010143,99.3286,207.2838,144.9118,215.2101,0,U,43655,999,38917,-.42070335E-4,-.87E-6,0
CFOSAT,2018-083A,2026-07-15T22:18:10.173888,15.16538301,.000183,97.3616,200.6163,75.6723,284.4713,0,U,43662,999,42679,.90896E-4,.1708E-4,0
TEN-KOH,2018-084G,2026-07-17T11:33:54.201312,15.03053918,.0009768,98.0765,32.1201,23.8261,336.3413,0,U,43677,999,42071,.11457E-3,.1478E-4,0
DIWATA-2B,2018-084H,2026-07-17T23:28:44.173056,15.00569266,.00126891,98.1211,36.5350,75.8524,284.4107,0,U,43678,999,42083,.83137743E-4,.985E-5,0
STARS-AO,2018-084J,2026-07-17T01:57:28.194048,15.17356770,.0003562,98.0474,53.8983,77.9645,282.1986,0,U,43679,999,42200,.16749E-3,.3267E-4,0
AUTCUBE 2,2018-084K,2026-07-17T01:07:01.641792,15.10273255,.00076293,98.0688,45.8049,307.5976,52.4559,0,U,43681,999,42143,.12370127E-3,.1954E-4,0
METOP-C,2018-087A,2026-07-17T21:32:38.637888,14.21503253,.00021289,98.6628,257.9374,90.1177,270.0244,0,U,43689,999,39919,.33143668E-4,.29E-6,0
ES'HAIL 2,2018-090A,2026-07-17T20:08:38.692608,1.00272480,.00023304,0.0143,73.7605,84.7371,105.0912,0,U,43700,999,2798,0,.135E-5,0
MOHAMMED VI-B,2018-095A,2026-07-17T22:21:45.899136,14.77082380,.00017831,97.9547,270.8311,91.2854,268.8561,0,U,43717,999,41272,.3815423E-5,-.24E-6,0
HYSIS,2018-096A,2026-07-17T22:24:42.421248,14.78671714,.000177,97.9826,265.4384,83.5146,276.6267,0,U,43719,999,41196,.32478927E-4,.186E-5,0
COSMOS 2530 (RODNIK-S 16),2018-097A,2026-07-17T23:10:37.040736,12.42882544,.00188669,82.5117,203.1786,332.7727,27.2362,0,U,43751,999,34611,.8462962E-3,.127E-5,0
COSMOS 2531 (RODNIK-S 17),2018-097B,2026-07-17T23:41:35.780352,12.42913892,.00164731,82.5162,204.2342,352.9089,7.1755,0,U,43752,999,34613,.87705097E-3,.131E-5,0
